{"type":"FeatureCollection","features":[{"type":"Feature","geometry":{"type":"Point","coordinates":[139.762665,35.697113]},"properties":{"name":"日本大学病院","address":"千代田区神田駿河台1-6","tel":"03-3293-1711","area":"区中央部","type":"kyoten","beds":"320","tertiary_er":true,"mark":""}},{"type":"Feature","geometry":{"type":"Point","coordinates":[139.77597,35.699192]},"properties":{"name":"三井記念病院","address":"千代田区神田和泉町1","tel":"03-3862-9111","area":"区中央部","type":"kyoten","beds":"482","tertiary_er":false,"mark":""}},{"type":"Feature","geometry":{"type":"Point","coordinates":[139.776779,35.667965]},"properties":{"name":"聖路加国際病院","address":"中央区明石町9-1","tel":"03-3541-5151","area":"区中央部","type":"kyoten","beds":"520","tertiary_er":true,"mark":""}},{"type":"Feature","geometry":{"type":"Point","coordinates":[139.742737,35.653156]},"properties":{"name":"東京都済生会中央病院","address":"港区三田1-4-17","tel":"03-3451-8211","area":"区中央部","type":"kyoten","beds":"535","tertiary_er":true,"mark":""}},{"type":"Feature","geometry":{"type":"Point","coordinates":[139.751434,35.663685]},"properties":{"name":"東京慈恵会医科大学附属病院","address":"港区西新橋3-19-18","tel":"03-3433-1111","area":"区中央部","type":"kyoten","beds":"1,075","tertiary_er":true,"mark":""}},{"type":"Feature","geometry":{"type":"Point","coordinates":[139.725525,35.645351]},"properties":{"name":"北里大学北里研究所病院","address":"港区白金5-9-1","tel":"03-3444-6161","area":"区中央部","type":"kyoten","beds":"329","tertiary_er":false,"mark":""}},{"type":"Feature","geometry":{"type":"Point","coordinates":[139.745483,35.669044]},"properties":{"name":"虎の門病院","address":"港区虎ノ門2-2-2","tel":"03-3588-1111","area":"区中央部","type":"kyoten","beds":"819","tertiary_er":false,"mark":""}},{"type":"Feature","geometry":{"type":"Point","coordinates":[139.758453,35.721233]},"properties":{"name":"日本医科大学付属病院","address":"文京区千駄木1-1-5","tel":"03-3822-2131","area":"区中央部","type":"kyoten","beds":"877","tertiary_er":true,"mark":"☆"}},{"type":"Feature","geometry":{"type":"Point","coordinates":[139.757309,35.729939]},"properties":{"name":"東京都立駒込病院","address":"文京区本駒込3-18-22","tel":"03-3823-2101","area":"区中央部","type":"kyoten","beds":"815","tertiary_er":false,"mark":""}},{"type":"Feature","geometry":{"type":"Point","coordinates":[139.762177,35.701878]},"properties":{"name":"順天堂大学医学部附属順天堂医院","address":"文京区本郷3-1-3","tel":"03-3813-3111","area":"区中央部","type":"kyoten","beds":"1,051","tertiary_er":false,"mark":""}},{"type":"Feature","geometry":{"type":"Point","coordinates":[139.765274,35.701828]},"properties":{"name":"東京医科歯科大学病院","address":"文京区湯島1-5-45","tel":"03-3813-6111","area":"区中央部","type":"kyoten","beds":"813","tertiary_er":true,"mark":""}},{"type":"Feature","geometry":{"type":"Point","coordinates":[139.763214,35.714146]},"properties":{"name":"東京大学医学部付属病院","address":"文京区本郷7-3-1","tel":"03-3815-5411","area":"区中央部","type":"kyoten","beds":"1,218","tertiary_er":true,"mark":""}},{"type":"Feature","geometry":{"type":"Point","coordinates":[139.779678,35.709957]},"properties":{"name":"永寿総合病院","address":"台東区東上野2-23-16","tel":"03-3833-8381","area":"区中央部","type":"kyoten","beds":"400","tertiary_er":false,"mark":""}},{"type":"Feature","geometry":{"type":"Point","coordinates":[139.704071,35.60899]},"properties":{"name":"昭和大学病院","address":"品川区旗の台1-5-8","tel":"03-3784-8000","area":"区南部","type":"kyoten","beds":"815","tertiary_er":true,"mark":""}},{"type":"Feature","geometry":{"type":"Point","coordinates":[139.726303,35.63055]},"properties":{"name":"NTT東日本関東病院","address":"品川区東五反田5-9-22","tel":"03-3448-6111","area":"区南部","type":"kyoten","beds":"594","tertiary_er":false,"mark":""}},{"type":"Feature","geometry":{"type":"Point","coordinates":[139.723694,35.569328]},"properties":{"name":"東邦大学医療センター大森病院","address":"大田区大森西6-11-1","tel":"03-3762-4151","area":"区南部","type":"kyoten","beds":"916","tertiary_er":true,"mark":"☆"}},{"type":"Feature","geometry":{"type":"Point","coordinates":[139.717361,35.579334]},"properties":{"name":"大森赤十字病院","address":"大田区中央4-30-1","tel":"03-3775-3111","area":"区南部","type":"kyoten","beds":"344","tertiary_er":false,"mark":""}},{"type":"Feature","geometry":{"type":"Point","coordinates":[139.692047,35.593746]},"properties":{"name":"東京都立荏原病院","address":"大田区東雪谷4-5-10","tel":"03-5734-8000","area":"区南部","type":"kyoten","beds":"461","tertiary_er":false,"mark":""}},{"type":"Feature","geometry":{"type":"Point","coordinates":[139.747208,35.564991]},"properties":{"name":"東京労災病院","address":"大田区大森南4-13-21","tel":"03-3742-7301","area":"区南部","type":"kyoten","beds":"400","tertiary_er":false,"mark":""}},{"type":"Feature","geometry":{"type":"Point","coordinates":[139.704132,35.572533]},"properties":{"name":"池上総合病院","address":"大田区池上6-1-19","tel":"03-3752-3151","area":"区南部","type":"kyoten","beds":"384","tertiary_er":false,"mark":""}},{"type":"Feature","geometry":{"type":"Point","coordinates":[139.666763,35.625114]},"properties":{"name":"国立病院機構東京医療センター","address":"目黒区東が丘2-5-1","tel":"03-3411-0111","area":"区西南部","type":"kyoten","beds":"640","tertiary_er":true,"mark":""}},{"type":"Feature","geometry":{"type":"Point","coordinates":[139.591934,35.656204]},"properties":{"name":"至誠会第二病院","address":"世田谷区上祖師谷5-19-1","tel":"03-3300-0366","area":"区西南部","type":"kyoten","beds":"301","tertiary_er":false,"mark":""}},{"type":"Feature","geometry":{"type":"Point","coordinates":[139.626846,35.636551]},"properties":{"name":"公立学校共済組合関東中央病院","address":"世田谷区上用賀6-25-1","tel":"03-3429-1171","area":"区西南部","type":"kyoten","beds":"383","tertiary_er":false,"mark":""}},{"type":"Feature","geometry":{"type":"Point","coordinates":[139.624924,35.619663]},"properties":{"name":"日産厚生会 玉川病院","address":"世田谷区瀬田4-8-1","tel":"03-3700-1151","area":"区西南部","type":"kyoten","beds":"381","tertiary_er":false,"mark":""}},{"type":"Feature","geometry":{"type":"Point","coordinates":[139.722046,35.647503]},"properties":{"name":"東京都立広尾病院","address":"渋谷区恵比寿2-34-10","tel":"03-3444-1181","area":"区西南部","type":"kyoten","beds":"408","tertiary_er":true,"mark":"★"}},{"type":"Feature","geometry":{"type":"Point","coordinates":[139.718201,35.656685]},"properties":{"name":"日本赤十字社医療センター","address":"渋谷区広尾4-1-22","tel":"03-3400-1311","area":"区西南部","type":"kyoten","beds":"693","tertiary_er":true,"mark":""}},{"type":"Feature","geometry":{"type":"Point","coordinates":[139.693008,35.694145]},"properties":{"name":"東京医科大学病院","address":"新宿区西新宿6-7-1","tel":"03-3342-6111","area":"区西部","type":"kyoten","beds":"904","tertiary_er":true,"mark":"☆"}},{"type":"Feature","geometry":{"type":"Point","coordinates":[139.718048,35.681423]},"properties":{"name":"慶応義塾大学病院","address":"新宿区信濃町35","tel":"03-3353-1211","area":"区西部","type":"kyoten","beds":"950","tertiary_er":false,"mark":""}},{"type":"Feature","geometry":{"type":"Point","coordinates":[139.719635,35.696342]},"properties":{"name":"東京女子医科大学病院","address":"新宿区河田町8-1","tel":"03-3353-8111","area":"区西部","type":"kyoten","beds":"1,139","tertiary_er":true,"mark":""}},{"type":"Feature","geometry":{"type":"Point","coordinates":[139.701263,35.696693]},"properties":{"name":"東京都立大久保病院","address":"新宿区歌舞伎町2-44-1","tel":"03-5273-7711","area":"区西部","type":"kyoten","beds":"304","tertiary_er":false,"mark":""}},{"type":"Feature","geometry":{"type":"Point","coordinates":[139.716217,35.703987]},"properties":{"name":"国立国際医療研究センター病院","address":"新宿区戸山1-21-1","tel":"03-3202-7181","area":"区西部","type":"kyoten","beds":"716","tertiary_er":true,"mark":""}},{"type":"Feature","geometry":{"type":"Point","coordinates":[139.699631,35.704315]},"properties":{"name":"東京山手メディカルセンター","address":"新宿区百人町3-22-1","tel":"03-3364-0251","area":"区西部","type":"kyoten","beds":"418","tertiary_er":false,"mark":""}},{"type":"Feature","geometry":{"type":"Point","coordinates":[139.742325,35.703087]},"properties":{"name":"東京新宿メディカルセンター","address":"新宿区津久戸町5-1","tel":"03-3269-8111","area":"区西部","type":"kyoten","beds":"520","tertiary_er":false,"mark":""}},{"type":"Feature","geometry":{"type":"Point","coordinates":[139.66713,35.702694]},"properties":{"name":"新渡戸記念中野総合病院","address":"中野区中央4-59-16","tel":"03-3382-1231","area":"区西部","type":"kyoten","beds":"296","tertiary_er":false,"mark":""}},{"type":"Feature","geometry":{"type":"Point","coordinates":[139.659378,35.709152]},"properties":{"name":"東京警察病院","address":"中野区中野4-22-1","tel":"03-5343-5611","area":"区西部","type":"kyoten","beds":"415","tertiary_er":false,"mark":""}},{"type":"Feature","geometry":{"type":"Point","coordinates":[139.607941,35.714733]},"properties":{"name":"荻窪病院","address":"杉並区今川3-1-24","tel":"03-3399-1101","area":"区西部","type":"kyoten","beds":"252","tertiary_er":false,"mark":""}},{"type":"Feature","geometry":{"type":"Point","coordinates":[139.656509,35.689209]},"properties":{"name":"杏林大学医学部付属杉並病院","address":"杉並区和田2-25-1","tel":"03-3383-1281","area":"区西部","type":"kyoten","beds":"340","tertiary_er":false,"mark":""}},{"type":"Feature","geometry":{"type":"Point","coordinates":[139.73204,35.724743]},"properties":{"name":"東京都立大塚病院","address":"豊島区南大塚2-8-1","tel":"03-3941-3211","area":"区西北部","type":"kyoten","beds":"413","tertiary_er":false,"mark":""}},{"type":"Feature","geometry":{"type":"Point","coordinates":[139.71254,35.78389]},"properties":{"name":"東京北医療センター","address":"北区赤羽台4-17-56","tel":"03-5963-3311","area":"区西北部","type":"kyoten","beds":"351","tertiary_er":false,"mark":""}},{"type":"Feature","geometry":{"type":"Point","coordinates":[139.691055,35.749275]},"properties":{"name":"日本大学医学部附属板橋病院","address":"板橋区大谷口上町30-1","tel":"03-3972-8111","area":"区西北部","type":"kyoten","beds":"990","tertiary_er":true,"mark":""}},{"type":"Feature","geometry":{"type":"Point","coordinates":[139.714478,35.759392]},"properties":{"name":"帝京大学医学部附属病院","address":"板橋区加賀2-11-1","tel":"03-3964-1211","area":"区西北部","type":"kyoten","beds":"1,068","tertiary_er":true,"mark":"☆"}},{"type":"Feature","geometry":{"type":"Point","coordinates":[139.703186,35.751152]},"properties":{"name":"東京都健康長寿医療センター","address":"板橋区栄町35-2","tel":"03-3964-1141","area":"区西北部","type":"kyoten","beds":"550","tertiary_er":false,"mark":""}},{"type":"Feature","geometry":{"type":"Point","coordinates":[139.700607,35.752899]},"properties":{"name":"東京都立豊島病院","address":"板橋区栄町33-1","tel":"03-5375-1234","area":"区西北部","type":"kyoten","beds":"438","tertiary_er":false,"mark":""}},{"type":"Feature","geometry":{"type":"Point","coordinates":[139.633621,35.76152]},"properties":{"name":"練馬光が丘病院","address":"練馬区光が丘2-5-1","tel":"03-3979-3611","area":"区西北部","type":"kyoten","beds":"457","tertiary_er":false,"mark":""}},{"type":"Feature","geometry":{"type":"Point","coordinates":[139.614899,35.742813]},"properties":{"name":"順天堂大学医学部附属練馬病院","address":"練馬区高野台3-1-10","tel":"03-5923-3111","area":"区西北部","type":"kyoten","beds":"490","tertiary_er":true,"mark":""}},{"type":"Feature","geometry":{"type":"Point","coordinates":[139.765991,35.773937]},"properties":{"name":"東京女子医科大学附属足立医療センター","address":"足立区江北4-33-1","tel":"03-3857-0111","area":"区東北部","type":"kyoten","beds":"450","tertiary_er":true,"mark":"☆"}},{"type":"Feature","geometry":{"type":"Point","coordinates":[139.780579,35.77647]},"properties":{"name":"西新井病院","address":"足立区西新井本町1-12-12","tel":"03-5647-1700","area":"区東北部","type":"kyoten","beds":"196","tertiary_er":false,"mark":""}},{"type":"Feature","geometry":{"type":"Point","coordinates":[139.802277,35.793526]},"properties":{"name":"苑田第一病院","address":"足立区竹の塚4-1-12","tel":"03-3850-5721","area":"区東北部","type":"kyoten","beds":"221","tertiary_er":false,"mark":""}},{"type":"Feature","geometry":{"type":"Point","coordinates":[139.749832,35.784794]},"properties":{"name":"博慈会記念総合病院","address":"足立区鹿浜5-11-1","tel":"03-3899-1311","area":"区東北部","type":"kyoten","beds":"306","tertiary_er":false,"mark":""}},{"type":"Feature","geometry":{"type":"Point","coordinates":[139.857986,35.752235]},"properties":{"name":"東京慈恵会医科大学葛飾医療センター","address":"葛飾区青戸6-41-2","tel":"03-3603-2111","area":"区東北部","type":"kyoten","beds":"371","tertiary_er":false,"mark":""}},{"type":"Feature","geometry":{"type":"Point","coordinates":[139.84465,35.767075]},"properties":{"name":"東京都立東部地域病院","address":"葛飾区亀有5-14-1","tel":"03-5682-5111","area":"区東北部","type":"kyoten","beds":"314","tertiary_er":false,"mark":""}},{"type":"Feature","geometry":{"type":"Point","coordinates":[139.842041,35.742363]},"properties":{"name":"平成立石病院","address":"葛飾区立石5-1-9","tel":"03-3692-2121","area":"区東北部","type":"kyoten","beds":"203","tertiary_er":false,"mark":""}},{"type":"Feature","geometry":{"type":"Point","coordinates":[139.817917,35.694927]},"properties":{"name":"東京都立墨東病院","address":"墨田区江東橋4-23-15","tel":"03-3633-6151","area":"区東部","type":"kyoten","beds":"765","tertiary_er":true,"mark":"☆"}},{"type":"Feature","geometry":{"type":"Point","coordinates":[139.816727,35.7174]},"properties":{"name":"東京曳舟病院","address":"墨田区東向島2-27-1","tel":"03-5655-1120","area":"区東部","type":"kyoten","beds":"200","tertiary_er":false,"mark":""}},{"type":"Feature","geometry":{"type":"Point","coordinates":[139.833939,35.690418]},"properties":{"name":"江東病院","address":"江東区大島6-8-5","tel":"03-3685-2166","area":"区東部","type":"kyoten","beds":"286","tertiary_er":false,"mark":""}},{"type":"Feature","geometry":{"type":"Point","coordinates":[139.834274,35.665363]},"properties":{"name":"順天堂大学医学部附属順天堂江東高齢者医療センター","address":"江東区新砂3-3-20","tel":"03-5632-3111","area":"区東部","type":"kyoten","beds":"404","tertiary_er":false,"mark":""}},{"type":"Feature","geometry":{"type":"Point","coordinates":[139.794235,35.633831]},"properties":{"name":"がん研究会有明病院","address":"江東区有明3-8-31","tel":"03-3520-0111","area":"区東部","type":"kyoten","beds":"686","tertiary_er":false,"mark":""}},{"type":"Feature","geometry":{"type":"Point","coordinates":[139.796387,35.650928]},"properties":{"name":"昭和大学江東豊洲病院","address":"江東区豊洲5-1-38","tel":"03-6204-6000","area":"区東部","type":"kyoten","beds":"400","tertiary_er":false,"mark":""}},{"type":"Feature","geometry":{"type":"Point","coordinates":[139.852676,35.651829]},"properties":{"name":"東京臨海病院","address":"江戸川区臨海町1-4-2","tel":"03-5605-8811","area":"区東部","type":"kyoten","beds":"400","tertiary_er":false,"mark":""}},{"type":"Feature","geometry":{"type":"Point","coordinates":[139.893112,35.728741]},"properties":{"name":"江戸川病院","address":"江戸川区東小岩2-24-18","tel":"03-3673-1221","area":"区東部","type":"kyoten","beds":"447","tertiary_er":false,"mark":""}},{"type":"Feature","geometry":{"type":"Point","coordinates":[139.861069,35.672161]},"properties":{"name":"森山記念病院","address":"江戸川区北葛西4-3-1","tel":"03-5679-1211","area":"区東部","type":"kyoten","beds":"293","tertiary_er":false,"mark":""}},{"type":"Feature","geometry":{"type":"Point","coordinates":[139.281174,35.782513]},"properties":{"name":"市立青梅総合医療センター","address":"青梅市東青梅4-16-5","tel":"0428-22-3191","area":"西多摩","type":"kyoten","beds":"521","tertiary_er":true,"mark":"☆"}},{"type":"Feature","geometry":{"type":"Point","coordinates":[139.271896,35.732136]},"properties":{"name":"公立阿伎留医療センター","address":"あきる野市引田78-1","tel":"042-558-0321","area":"西多摩","type":"kyoten","beds":"305","tertiary_er":false,"mark":""}},{"type":"Feature","geometry":{"type":"Point","coordinates":[139.326569,35.747074]},"properties":{"name":"公立福生病院","address":"福生市加美平1-6-1","tel":"042-551-1111","area":"西多摩","type":"kyoten","beds":"316","tertiary_er":false,"mark":""}},{"type":"Feature","geometry":{"type":"Point","coordinates":[139.288834,35.632919]},"properties":{"name":"東京医科大学八王子医療センター","address":"八王子市館町1163","tel":"042-665-5611","area":"南多摩","type":"kyoten","beds":"610","tertiary_er":true,"mark":"☆"}},{"type":"Feature","geometry":{"type":"Point","coordinates":[139.357056,35.673813]},"properties":{"name":"東海大学八王子病院","address":"八王子市石川町1838","tel":"042-639-1111","area":"南多摩","type":"kyoten","beds":"500","tertiary_er":false,"mark":""}},{"type":"Feature","geometry":{"type":"Point","coordinates":[139.446304,35.631214]},"properties":{"name":"日本医科大学多摩永山病院","address":"多摩市永山1-7-1","tel":"042-371-2111","area":"南多摩","type":"kyoten","beds":"405","tertiary_er":true,"mark":""}},{"type":"Feature","geometry":{"type":"Point","coordinates":[139.414154,35.623051]},"properties":{"name":"東京都立多摩南部地域病院","address":"多摩市中沢2-1-2","tel":"042-338-5111","area":"南多摩","type":"kyoten","beds":"287","tertiary_er":false,"mark":""}},{"type":"Feature","geometry":{"type":"Point","coordinates":[139.481995,35.641563]},"properties":{"name":"稲城市立病院","address":"稲城市大丸1171","tel":"042-377-0931","area":"南多摩","type":"kyoten","beds":"290","tertiary_er":false,"mark":""}},{"type":"Feature","geometry":{"type":"Point","coordinates":[139.438797,35.556625]},"properties":{"name":"町田市民病院","address":"町田市旭町2-15-41","tel":"042-722-2230","area":"南多摩","type":"kyoten","beds":"440","tertiary_er":false,"mark":""}},{"type":"Feature","geometry":{"type":"Point","coordinates":[139.471161,35.507118]},"properties":{"name":"南町田病院","address":"町田市鶴間4-4-1","tel":"042-799-6161","area":"南多摩","type":"kyoten","beds":"222","tertiary_er":false,"mark":""}},{"type":"Feature","geometry":{"type":"Point","coordinates":[139.378754,35.66647]},"properties":{"name":"日野市立病院","address":"日野市多摩平4-3-1","tel":"042-581-2677","area":"南多摩","type":"kyoten","beds":"300","tertiary_er":false,"mark":""}},{"type":"Feature","geometry":{"type":"Point","coordinates":[139.407944,35.706291]},"properties":{"name":"国立病院機構災害医療センター","address":"立川市緑町3256","tel":"042-526-5511","area":"北多摩西部","type":"kyoten","beds":"455","tertiary_er":true,"mark":"★"}},{"type":"Feature","geometry":{"type":"Point","coordinates":[139.421524,35.69252]},"properties":{"name":"立川病院","address":"立川市錦町4‐2‐22","tel":"042-523-3131","area":"北多摩西部","type":"kyoten","beds":"450","tertiary_er":false,"mark":""}},{"type":"Feature","geometry":{"type":"Point","coordinates":[139.431793,35.74131]},"properties":{"name":"東大和病院","address":"東大和市南街1-13-12","tel":"042-562-1411","area":"北多摩西部","type":"kyoten","beds":"284","tertiary_er":false,"mark":""}},{"type":"Feature","geometry":{"type":"Point","coordinates":[139.546799,35.697903]},"properties":{"name":"武蔵野赤十字病院","address":"武蔵野市境南町1-26-1","tel":"0422-32-3111","area":"北多摩南部","type":"kyoten","beds":"611","tertiary_er":true,"mark":""}},{"type":"Feature","geometry":{"type":"Point","coordinates":[139.461517,35.692005]},"properties":{"name":"東京都立多摩・小児総合医療センター","address":"府中市武蔵台2-8-29","tel":"042-323-5111","area":"北多摩南部","type":"kyoten","beds":"789","tertiary_er":true,"mark":"☆"}},{"type":"Feature","geometry":{"type":"Point","coordinates":[139.565598,35.677597]},"properties":{"name":"杏林大学医学部付属病院","address":"三鷹市新川6-20-2","tel":"0422-47-5511","area":"北多摩南部","type":"kyoten","beds":"1,137","tertiary_er":true,"mark":""}},{"type":"Feature","geometry":{"type":"Point","coordinates":[139.566803,35.644066]},"properties":{"name":"東京慈恵会医科大学附属第三病院","address":"狛江市和泉本町4-11-1","tel":"03-3480-1151","area":"北多摩南部","type":"kyoten","beds":"561","tertiary_er":false,"mark":""}},{"type":"Feature","geometry":{"type":"Point","coordinates":[139.502655,35.731667]},"properties":{"name":"公立昭和病院","address":"小平市花小金井8-1-1","tel":"042-461-0052","area":"北多摩北部","type":"kyoten","beds":"485","tertiary_er":true,"mark":"☆"}},{"type":"Feature","geometry":{"type":"Point","coordinates":[139.538803,35.729767]},"properties":{"name":"佐々総合病院","address":"西東京市田無町4-24-15","tel":"042-461-1535","area":"北多摩北部","type":"kyoten","beds":"183","tertiary_er":false,"mark":""}},{"type":"Feature","geometry":{"type":"Point","coordinates":[139.491348,35.760593]},"properties":{"name":"東京都立多摩北部医療センター","address":"東村山市青葉町1-7-1","tel":"042-396-3811","area":"北多摩北部","type":"kyoten","beds":"337","tertiary_er":false,"mark":""}},{"type":"Feature","geometry":{"type":"Point","coordinates":[139.505692,35.77]},"properties":{"name":"国立病院機構東京病院","address":"清瀬市竹丘3-1-1","tel":"042-491-2111","area":"北多摩北部","type":"kyoten","beds":"472","tertiary_er":false,"mark":""}},{"type":"Feature","geometry":{"type":"Point","coordinates":[139.742691,35.697601]},"properties":{"name":"東京逓信病院","address":"千代田区富士見2-14-23","tel":"03-5214-7111","area":"区中央部","type":"renkei","beds":"461","tertiary_er":false,"mark":""}},{"type":"Feature","geometry":{"type":"Point","coordinates":[139.760956,35.700001]},"properties":{"name":"社団法人 東京都教職員互助会 三楽病院","address":"千代田区神田駿河台2-5","tel":"03-3292-3981","area":"区中央部","type":"renkei","beds":"240","tertiary_er":false,"mark":""}},{"type":"Feature","geometry":{"type":"Point","coordinates":[139.742737,35.653156]},"properties":{"name":"国際医療福祉大学附属 三田病院","address":"港区三田1-4-3","tel":"03-3451-8121","area":"区中央部","type":"renkei","beds":"291","tertiary_er":false,"mark":""}},{"type":"Feature","geometry":{"type":"Point","coordinates":[139.731277,35.631798]},"properties":{"name":"東京高輪病院","address":"港区高輪3-10-11","tel":"03-3443-9191","area":"区中央部","type":"renkei","beds":"247","tertiary_er":false,"mark":""}},{"type":"Feature","geometry":{"type":"Point","coordinates":[139.807251,35.721222]},"properties":{"name":"医療法人社団 哺育会 浅草病院","address":"台東区今戸2-26-15","tel":"03-3876-1711","area":"区中央部","type":"renkei","beds":"136","tertiary_er":false,"mark":""}},{"type":"Feature","geometry":{"type":"Point","coordinates":[139.792999,35.722477]},"properties":{"name":"東京都台東区立台東病院","address":"台東区千束3-20-5","tel":"03-3876-1001","area":"区中央部","type":"renkei","beds":"40","tertiary_er":false,"mark":""}},{"type":"Feature","geometry":{"type":"Point","coordinates":[139.739136,35.621426]},"properties":{"name":"公益財団法人 河野臨床医学研究所附属 第三北品川病院","address":"品川区北品川3-3-7","tel":"03-3474-1948","area":"区南部","type":"renkei","beds":"114","tertiary_er":false,"mark":""}},{"type":"Feature","geometry":{"type":"Point","coordinates":[139.698578,35.60355]},"properties":{"name":"医療法人社団 おきの会 旗の台病院","address":"品川区旗の台5-17-16","tel":"03-3781-1108","area":"区南部","type":"renkei","beds":"60","tertiary_er":false,"mark":""}},{"type":"Feature","geometry":{"type":"Point","coordinates":[139.735382,35.601608]},"properties":{"name":"東京品川病院","address":"品川区東大井6-3-22","tel":"03-3764-0511","area":"区南部","type":"renkei","beds":"296","tertiary_er":false,"mark":""}},{"type":"Feature","geometry":{"type":"Point","coordinates":[139.727371,35.586105]},"properties":{"name":"社会医療法人財団 仁医会 牧田総合病院","address":"大田区大森北1-34-6","tel":"03-3762-4671","area":"区南部","type":"renkei","beds":"329","tertiary_er":false,"mark":""}},{"type":"Feature","geometry":{"type":"Point","coordinates":[139.711807,35.5644]},"properties":{"name":"医療法人社団森と海東京 東京蒲田病院","address":"大田区西蒲田7-10-1","tel":"03-3733-0525","area":"区南部","type":"renkei","beds":"124","tertiary_er":false,"mark":""}},{"type":"Feature","geometry":{"type":"Point","coordinates":[139.723892,35.554638]},"properties":{"name":"東京蒲田医療センター","address":"大田区南蒲田2-19-2","tel":"03-3738-8221","area":"区南部","type":"renkei","beds":"230","tertiary_er":false,"mark":""}},{"type":"Feature","geometry":{"type":"Point","coordinates":[139.737808,35.568844]},"properties":{"name":"大田病院","address":"大田区大森東4-4-14","tel":"03-3762-8421","area":"区南部","type":"renkei","beds":"189","tertiary_er":false,"mark":""}},{"type":"Feature","geometry":{"type":"Point","coordinates":[139.703857,35.641899]},"properties":{"name":"国家公務員 共済組合連合会 東京共済病院","address":"目黒区中目黒2-3-8","tel":"03-3712-3151","area":"区西南部","type":"renkei","beds":"350","tertiary_er":false,"mark":""}},{"type":"Feature","geometry":{"type":"Point","coordinates":[139.685287,35.641602]},"properties":{"name":"国家公務員 共済組合連合会 三宿病院","address":"目黒区上目黒5-33-12","tel":"03-3711-5771","area":"区西南部","type":"renkei","beds":"206","tertiary_er":false,"mark":""}},{"type":"Feature","geometry":{"type":"Point","coordinates":[139.691391,35.631939]},"properties":{"name":"医療法人社団 菫会 目黒病院","address":"目黒区中央町2-12-6","tel":"03-3711-5641","area":"区西南部","type":"renkei","beds":"60","tertiary_er":false,"mark":""}},{"type":"Feature","geometry":{"type":"Point","coordinates":[139.684448,35.652473]},"properties":{"name":"東邦大学医療センター 大橋病院","address":"目黒区大橋2‐22‐36","tel":"03-3468-1251","area":"区西南部","type":"renkei","beds":"320","tertiary_er":false,"mark":""}},{"type":"Feature","geometry":{"type":"Point","coordinates":[139.712906,35.641178]},"properties":{"name":"総合病院 厚生中央病院","address":"目黒区三田1-11-7","tel":"03-3713-2141","area":"区西南部","type":"renkei","beds":"320","tertiary_er":false,"mark":""}},{"type":"Feature","geometry":{"type":"Point","coordinates":[139.613312,35.63287]},"properties":{"name":"国立研究開発法人国立成育医療研究センター","address":"世田谷区大蔵2-10-1","tel":"03-3416-0181","area":"区西南部","type":"renkei","beds":"490","tertiary_er":false,"mark":""}},{"type":"Feature","geometry":{"type":"Point","coordinates":[139.617523,35.669216]},"properties":{"name":"東京都立松沢病院","address":"世田谷区上北沢2-1-1","tel":"03-3303-7211","area":"区西南部","type":"renkei","beds":"898","tertiary_er":false,"mark":""}},{"type":"Feature","geometry":{"type":"Point","coordinates":[139.699539,35.686707]},"properties":{"name":"JR東京総合病院","address":"渋谷区代々木2-1-3","tel":"03-3320-2204","area":"区西南部","type":"renkei","beds":"423","tertiary_er":false,"mark":""}},{"type":"Feature","geometry":{"type":"Point","coordinates":[139.685822,35.679592]},"properties":{"name":"医療法人温光会 内藤病院","address":"渋谷区初台1-35-10","tel":"03-3370-2351","area":"区西南部","type":"renkei","beds":"53","tertiary_er":false,"mark":""}},{"type":"Feature","geometry":{"type":"Point","coordinates":[139.67514,35.677181]},"properties":{"name":"クロス病院","address":"渋谷区幡ケ谷2-18-20","tel":"03-3376-2361","area":"区西南部","type":"renkei","beds":"42","tertiary_er":false,"mark":""}},{"type":"Feature","geometry":{"type":"Point","coordinates":[139.716171,35.681942]},"properties":{"name":"医療法人社団 仁圭会 林外科病院","address":"新宿区大京町27","tel":"03-3357-3161","area":"区西部","type":"renkei","beds":"42","tertiary_er":false,"mark":""}},{"type":"Feature","geometry":{"type":"Point","coordinates":[139.694489,35.720657]},"properties":{"name":"社会福祉法人 聖母会 聖母病院","address":"新宿区中落合2-5-1","tel":"03-3951-1111","area":"区西部","type":"renkei","beds":"154","tertiary_er":false,"mark":""}},{"type":"Feature","geometry":{"type":"Point","coordinates":[139.698975,35.722202]},"properties":{"name":"医療法人社団 悦伝会 目白病院","address":"新宿区下落合3-22-23","tel":"03-3953-9909","area":"区西部","type":"renkei","beds":"100","tertiary_er":false,"mark":""}},{"type":"Feature","geometry":{"type":"Point","coordinates":[139.697403,35.698387]},"properties":{"name":"医療法人社団 広恵会 春山記念病院","address":"新宿区百人町1-24-5","tel":"03-3363-1661","area":"区西部","type":"renkei","beds":"99","tertiary_er":false,"mark":""}},{"type":"Feature","geometry":{"type":"Point","coordinates":[139.664261,35.727566]},"properties":{"name":"医療法人財団 健貢会 総合東京病院","address":"中野区江古田3-15-2","tel":"03-3387-5421","area":"区西部","type":"renkei","beds":"451","tertiary_er":false,"mark":""}},{"type":"Feature","geometry":{"type":"Point","coordinates":[139.666016,35.71302]},"properties":{"name":"医療法人社団 徳静会 横畠病院","address":"中野区新井1-38-6","tel":"03-3389-2531","area":"区西部","type":"renkei","beds":"37","tertiary_er":false,"mark":""}},{"type":"Feature","geometry":{"type":"Point","coordinates":[139.6147,35.708172]},"properties":{"name":"社団法人 衛生文化協会 城西病院","address":"杉並区上荻2-42-11","tel":"03-3390-4166","area":"区西部","type":"renkei","beds":"50","tertiary_er":false,"mark":""}},{"type":"Feature","geometry":{"type":"Point","coordinates":[139.619247,35.707851]},"properties":{"name":"医療法人財団 アドベンチスト会 東京衛生アドベンチスト病院","address":"杉並区天沼3-17-3","tel":"03-3392-6151","area":"区西部","type":"renkei","beds":"186","tertiary_er":false,"mark":""}},{"type":"Feature","geometry":{"type":"Point","coordinates":[139.617279,35.694744]},"properties":{"name":"医療法人社団山斗会 山中病院","address":"杉並区南荻窪1-5-15","tel":"03-3335-5611","area":"区西部","type":"renkei","beds":"47","tertiary_er":false,"mark":""}},{"type":"Feature","geometry":{"type":"Point","coordinates":[139.609787,35.67963]},"properties":{"name":"社会福祉法人 浴風会 浴風会病院","address":"杉並区高井戸西1-12-1","tel":"03-3332-6511","area":"区西部","type":"renkei","beds":"150","tertiary_er":false,"mark":""}},{"type":"Feature","geometry":{"type":"Point","coordinates":[139.63443,35.681488]},"properties":{"name":"浜田山病院","address":"杉並区浜田山4-1-8","tel":"03-3311-1198","area":"区西部","type":"renkei","beds":"48","tertiary_er":false,"mark":""}},{"type":"Feature","geometry":{"type":"Point","coordinates":[139.602325,35.695675]},"properties":{"name":"医療法人社団君真光 寺田病院","address":"杉並区宮前5-18-16","tel":"03-3332-1166","area":"区西部","type":"renkei","beds":"21","tertiary_er":false,"mark":""}},{"type":"Feature","geometry":{"type":"Point","coordinates":[139.639023,35.706532]},"properties":{"name":"河北総合病院","address":"杉並区阿佐谷北1-7-3","tel":"03-3339-3602","area":"区西部","type":"renkei","beds":"331","tertiary_er":false,"mark":""}},{"type":"Feature","geometry":{"type":"Point","coordinates":[139.644073,35.704121]},"properties":{"name":"医療法人社団 静山会 清川病院","address":"杉並区阿佐谷南2-31-12","tel":"03-3312-0151","area":"区西部","type":"renkei","beds":"111","tertiary_er":false,"mark":""}},{"type":"Feature","geometry":{"type":"Point","coordinates":[139.629807,35.683247]},"properties":{"name":"ニューハート・ワタナベ国際病院","address":"杉並区浜田山3-19-11","tel":"03-3311-1119","area":"区西部","type":"renkei","beds":"44","tertiary_er":false,"mark":""}},{"type":"Feature","geometry":{"type":"Point","coordinates":[139.730194,35.732861]},"properties":{"name":"医療法人社団 日心会 総合病院 一心病院","address":"豊島区北大塚1-18-7","tel":"03-3918-1215","area":"区西北部","type":"renkei","beds":"85","tertiary_er":false,"mark":""}},{"type":"Feature","geometry":{"type":"Point","coordinates":[139.71283,35.735123]},"properties":{"name":"社会医療法人社団 大成会 長汐病院","address":"豊島区池袋1-5-8","tel":"03-3984-6161","area":"区西北部","type":"renkei","beds":"93","tertiary_er":false,"mark":""}},{"type":"Feature","geometry":{"type":"Point","coordinates":[139.71936,35.737366]},"properties":{"name":"医療法人社団 仁済会 豊島中央病院","address":"豊島区上池袋2-42-21","tel":"03-3916-7211","area":"区西北部","type":"renkei","beds":"60","tertiary_er":false,"mark":""}},{"type":"Feature","geometry":{"type":"Point","coordinates":[139.709717,35.71439]},"properties":{"name":"大同病院","address":"豊島区高田3-22-8","tel":"03-3981-3213","area":"区西北部","type":"renkei","beds":"60","tertiary_er":false,"mark":""}},{"type":"Feature","geometry":{"type":"Point","coordinates":[139.731644,35.768665]},"properties":{"name":"医療法人社団 田島厚生会 神谷病院","address":"北区神谷1-27-14","tel":"03-3914-5536","area":"区西北部","type":"renkei","beds":"90","tertiary_er":false,"mark":""}},{"type":"Feature","geometry":{"type":"Point","coordinates":[139.74408,35.760498]},"properties":{"name":"王子生協病院","address":"北区豊島3-4-15","tel":"03-3912-2201","area":"区西北部","type":"renkei","beds":"159","tertiary_er":false,"mark":""}},{"type":"Feature","geometry":{"type":"Point","coordinates":[139.726944,35.777405]},"properties":{"name":"医療法人社団 博栄会 赤羽中央総合病院","address":"北区志茂1-19-14","tel":"03-3902-0348","area":"区西北部","type":"renkei","beds":"154","tertiary_er":false,"mark":""}},{"type":"Feature","geometry":{"type":"Point","coordinates":[139.703568,35.784397]},"properties":{"name":"医療法人社団 博栄会 浮間中央病院","address":"北区赤羽北2-21-19","tel":"03-3907-8711","area":"区西北部","type":"renkei","beds":"95","tertiary_er":false,"mark":""}},{"type":"Feature","geometry":{"type":"Point","coordinates":[139.720413,35.780552]},"properties":{"name":"赤羽東口病院","address":"北区赤羽1-38-5","tel":"03-3902-2131","area":"区西北部","type":"renkei","beds":"48","tertiary_er":false,"mark":""}},{"type":"Feature","geometry":{"type":"Point","coordinates":[139.728592,35.765137]},"properties":{"name":"医療法人財団明理会 明理会中央総合病院","address":"北区東十条3-2-11","tel":"03-5902-1050","area":"区西北部","type":"renkei","beds":"312","tertiary_er":false,"mark":""}},{"type":"Feature","geometry":{"type":"Point","coordinates":[139.720825,35.753708]},"properties":{"name":"公益財団法人 愛世会 愛誠病院","address":"板橋区加賀1-3-1","tel":"03-3961-5351","area":"区西北部","type":"renkei","beds":"0","tertiary_er":false,"mark":""}},{"type":"Feature","geometry":{"type":"Point","coordinates":[139.690109,35.762489]},"properties":{"name":"医療法人財団 朔望会 常盤台外科病院","address":"板橋区常盤台2-25-20","tel":"03-3960-9621","area":"区西北部","type":"renkei","beds":"99","tertiary_er":false,"mark":""}},{"type":"Feature","geometry":{"type":"Point","coordinates":[139.687637,35.75605]},"properties":{"name":"医療法人社団 和好会 金子病院","address":"板橋区南常盤台1-15-14","tel":"03-3956-0145","area":"区西北部","type":"renkei","beds":"38","tertiary_er":false,"mark":""}},{"type":"Feature","geometry":{"type":"Point","coordinates":[139.633713,35.7785]},"properties":{"name":"医療法人社団 正風会 小林病院","address":"板橋区成増3-10-8","tel":"03-3930-7077","area":"区西北部","type":"renkei","beds":"71","tertiary_er":false,"mark":""}},{"type":"Feature","geometry":{"type":"Point","coordinates":[139.668045,35.786674]},"properties":{"name":"医療法人社団 明芳会 高島平中央総合病院","address":"板橋区高島平1-73-1","tel":"03-3936-5711","area":"区西北部","type":"renkei","beds":"234","tertiary_er":false,"mark":""}},{"type":"Feature","geometry":{"type":"Point","coordinates":[139.700714,35.772682]},"properties":{"name":"医療法人財団 健康文化会 小豆沢病院","address":"板橋区小豆沢1-6-8","tel":"03-3966-8411","area":"区西北部","type":"renkei","beds":"94","tertiary_er":false,"mark":""}},{"type":"Feature","geometry":{"type":"Point","coordinates":[139.696747,35.775574]},"properties":{"name":"医療法人社団 明芳会 板橋中央総合病院","address":"板橋区小豆沢2-12-7","tel":"03-3967-1258","area":"区西北部","type":"renkei","beds":"569","tertiary_er":false,"mark":""}},{"type":"Feature","geometry":{"type":"Point","coordinates":[139.657852,35.786076]},"properties":{"name":"板橋区医師会病院","address":"板橋区高島平3-12-6","tel":"03-3975-8151","area":"区西北部","type":"renkei","beds":"192","tertiary_er":false,"mark":""}},{"type":"Feature","geometry":{"type":"Point","coordinates":[139.659409,35.770798]},"properties":{"name":"医療法人社団慈誠会 東武練馬中央病院","address":"板橋区徳丸3-19-1","tel":"03-3934-1611","area":"区西北部","type":"renkei","beds":"37","tertiary_er":false,"mark":""}},{"type":"Feature","geometry":{"type":"Point","coordinates":[139.677277,35.733109]},"properties":{"name":"練馬総合病院","address":"練馬区旭丘1-24-1","tel":"03-5988-2200","area":"区西北部","type":"renkei","beds":"224","tertiary_er":false,"mark":""}},{"type":"Feature","geometry":{"type":"Point","coordinates":[139.67067,35.736835]},"properties":{"name":"浩生会スズキ病院","address":"練馬区栄町7-1","tel":"03-3557-2001","area":"区西北部","type":"renkei","beds":"99","tertiary_er":false,"mark":""}},{"type":"Feature","geometry":{"type":"Point","coordinates":[139.5849,35.741447]},"properties":{"name":"大泉生協病院","address":"練馬区東大泉6-3-3","tel":"03-5387-3111","area":"区西北部","type":"renkei","beds":"94","tertiary_er":false,"mark":""}},{"type":"Feature","geometry":{"type":"Point","coordinates":[139.582062,35.721832]},"properties":{"name":"医療法人社団 千秋会 田中脳神経外科病院","address":"練馬区関町南3-9-23","tel":"03-3920-6263","area":"区西北部","type":"renkei","beds":"58","tertiary_er":false,"mark":""}},{"type":"Feature","geometry":{"type":"Point","coordinates":[139.717041,35.731014]},"properties":{"name":"医療法人社団 生全会 池袋病院","address":"豊島区東池袋3-5-4","tel":"03-3987-2431","area":"区西北部","type":"renkei","beds":"40","tertiary_er":false,"mark":""}},{"type":"Feature","geometry":{"type":"Point","coordinates":[139.742828,35.745586]},"properties":{"name":"花と森の東京病院","address":"北区西ヶ原2-3-6","tel":"03-3910-1151","area":"区西北部","type":"renkei","beds":"199","tertiary_er":false,"mark":""}},{"type":"Feature","geometry":{"type":"Point","coordinates":[139.788727,35.733662]},"properties":{"name":"社会医療法人社団一成会 木村病院","address":"荒川区南千住1-1-1","tel":"03-5615-2111","area":"区東北部","type":"renkei","beds":"88","tertiary_er":false,"mark":""}},{"type":"Feature","geometry":{"type":"Point","coordinates":[139.766342,35.747936]},"properties":{"name":"社会医療法人社団正志会 令和あらかわ病院","address":"荒川区東尾久5-45-1","tel":"03-6807-7500","area":"区東北部","type":"renkei","beds":"240","tertiary_er":false,"mark":""}},{"type":"Feature","geometry":{"type":"Point","coordinates":[139.761505,35.749561]},"properties":{"name":"医療法人社団 藤寿会 佐藤病院","address":"荒川区西尾久5-7-1","tel":"03-3893-6525","area":"区東北部","type":"renkei","beds":"60","tertiary_er":false,"mark":""}},{"type":"Feature","geometry":{"type":"Point","coordinates":[139.775711,35.737354]},"properties":{"name":"医療法人社団 杏精会 岡田病院","address":"荒川区荒川5-3-1","tel":"03-3891-2231","area":"区東北部","type":"renkei","beds":"57","tertiary_er":false,"mark":""}},{"type":"Feature","geometry":{"type":"Point","coordinates":[139.806534,35.737522]},"properties":{"name":"医療法人社団正志会 荒木記念東京リバーサイド病院","address":"荒川区南千住8-4-4","tel":"03-5850-0311","area":"区東北部","type":"renkei","beds":"109","tertiary_er":false,"mark":""}},{"type":"Feature","geometry":{"type":"Point","coordinates":[139.816544,35.779488]},"properties":{"name":"社会医療法人社団 慈生会 等潤病院","address":"足立区一ッ家4-3-4","tel":"03-3850-8711","area":"区東北部","type":"renkei","beds":"108","tertiary_er":false,"mark":""}},{"type":"Feature","geometry":{"type":"Point","coordinates":[139.784744,35.800327]},"properties":{"name":"医療法人社団 苑田会 苑田第三病院","address":"足立区伊興本町2-5-10","tel":"03-5837-5113","area":"区東北部","type":"renkei","beds":"117","tertiary_er":false,"mark":""}},{"type":"Feature","geometry":{"type":"Point","coordinates":[139.786072,35.760845]},"properties":{"name":"医療法人社団 医善会 いずみ記念病院","address":"足立区本木1-3-7","tel":"03-5888-2111","area":"区東北部","type":"renkei","beds":"54","tertiary_er":false,"mark":""}},{"type":"Feature","geometry":{"type":"Point","coordinates":[139.805054,35.745289]},"properties":{"name":"愛里病院","address":"足立区千住東1-20-12","tel":"03-3888-7721","area":"区東北部","type":"renkei","beds":"140","tertiary_er":false,"mark":""}},{"type":"Feature","geometry":{"type":"Point","coordinates":[139.833344,35.774879]},"properties":{"name":"綾瀬循環器病院","address":"足立区谷中2-16-7","tel":"03-3605-2811","area":"区東北部","type":"renkei","beds":"76","tertiary_er":false,"mark":""}},{"type":"Feature","geometry":{"type":"Point","coordinates":[139.843475,35.773064]},"properties":{"name":"医療法人社団 大坪会 東和病院","address":"足立区東和4-7-10","tel":"03-3629-8111","area":"区東北部","type":"renkei","beds":"192","tertiary_er":false,"mark":""}},{"type":"Feature","geometry":{"type":"Point","coordinates":[139.816254,35.741894]},"properties":{"name":"医療法人財団 健和会 柳原病院","address":"足立区千住曙町35-1","tel":"03-3882-1928","area":"区東北部","type":"renkei","beds":"90","tertiary_er":false,"mark":""}},{"type":"Feature","geometry":{"type":"Point","coordinates":[139.82782,35.754276]},"properties":{"name":"医療法人財団 慈光会 堀切中央病院","address":"葛飾区堀切7-4-4","tel":"03-3602-3135","area":"区東北部","type":"renkei","beds":"59","tertiary_er":false,"mark":""}},{"type":"Feature","geometry":{"type":"Point","coordinates":[139.855743,35.720303]},"properties":{"name":"医療法人社団 五十鈴会 坂本病院","address":"葛飾区西新小岩4-39-20","tel":"03-3691-2500","area":"区東北部","type":"renkei","beds":"37","tertiary_er":false,"mark":""}},{"type":"Feature","geometry":{"type":"Point","coordinates":[139.833328,35.744713]},"properties":{"name":"医療法人社団 明芳会 イムス葛飾ハートセンター","address":"葛飾区堀切3-30-1","tel":"03-3694-8118","area":"区東北部","type":"renkei","beds":"50","tertiary_er":false,"mark":""}},{"type":"Feature","geometry":{"type":"Point","coordinates":[139.849182,35.763279]},"properties":{"name":"医療法人財団 謙仁会 亀有病院","address":"葛飾区亀有3-36-3","tel":"03-3601-0186","area":"区東北部","type":"renkei","beds":"60","tertiary_er":false,"mark":""}},{"type":"Feature","geometry":{"type":"Point","coordinates":[139.865677,35.763023]},"properties":{"name":"医療法人社団 玲瓏会 金町中央病院","address":"葛飾区金町1-9-1","tel":"03-3607-3201","area":"区東北部","type":"renkei","beds":"99","tertiary_er":false,"mark":""}},{"type":"Feature","geometry":{"type":"Point","coordinates":[139.876678,35.772312]},"properties":{"name":"社会医療法人社団 光仁会 第一病院","address":"葛飾区東金町4-2-10","tel":"03-3607-0007","area":"区東北部","type":"renkei","beds":"101","tertiary_er":false,"mark":""}},{"type":"Feature","geometry":{"type":"Point","coordinates":[139.871674,35.773094]},"properties":{"name":"医療法人社団 嬉泉会 嬉泉病院","address":"葛飾区東金町1-35-8","tel":"03-3600-9001","area":"区東北部","type":"renkei","beds":"26","tertiary_er":false,"mark":""}},{"type":"Feature","geometry":{"type":"Point","coordinates":[139.869904,35.748497]},"properties":{"name":"かつしか江戸川病院","address":"葛飾区高砂3-27-13","tel":"03-5668-0365","area":"区東北部","type":"renkei","beds":"60","tertiary_er":false,"mark":""}},{"type":"Feature","geometry":{"type":"Point","coordinates":[139.85257,35.718845]},"properties":{"name":"イムス東京葛飾総合病院","address":"葛飾区西新小岩4-18-1","tel":"03-5670-9901","area":"区東北部","type":"renkei","beds":"236","tertiary_er":false,"mark":""}},{"type":"Feature","geometry":{"type":"Point","coordinates":[139.826141,35.712944]},"properties":{"name":"医療法人社団 隆靖会 墨田中央病院","address":"墨田区京島3-67-1","tel":"03-3617-1414","area":"区東部","type":"renkei","beds":"97","tertiary_er":false,"mark":""}},{"type":"Feature","geometry":{"type":"Point","coordinates":[139.822144,35.721214]},"properties":{"name":"東京都済生会向島病院","address":"墨田区八広1-5-10","tel":"03-3610-3651","area":"区東部","type":"renkei","beds":"102","tertiary_er":false,"mark":""}},{"type":"Feature","geometry":{"type":"Point","coordinates":[139.823395,35.717541]},"properties":{"name":"医療法人社団 仁寿会 中村病院","address":"墨田区八広2-1-1","tel":"03-3612-7131","area":"区東部","type":"renkei","beds":"99","tertiary_er":false,"mark":""}},{"type":"Feature","geometry":{"type":"Point","coordinates":[139.813782,35.702652]},"properties":{"name":"社会福祉法人 賛育会 賛育会病院","address":"墨田区太平3-20-2","tel":"03-3622-9191","area":"区東部","type":"renkei","beds":"199","tertiary_er":false,"mark":""}},{"type":"Feature","geometry":{"type":"Point","coordinates":[139.794312,35.700493]},"properties":{"name":"同愛記念病院","address":"墨田区横網2-1-11","tel":"03-3625-6381","area":"区東部","type":"renkei","beds":"373","tertiary_er":false,"mark":""}},{"type":"Feature","geometry":{"type":"Point","coordinates":[139.80043,35.700916]},"properties":{"name":"医療法人財団 正明会 山田記念病院","address":"墨田区石原2-20-1","tel":"03-3624-1151","area":"区東部","type":"renkei","beds":"98","tertiary_er":false,"mark":""}},{"type":"Feature","geometry":{"type":"Point","coordinates":[139.845352,35.69482]},"properties":{"name":"独立行政法人地域医療機能推進機構 東京城東病院","address":"江東区亀戸9-13-1","tel":"03-3685-1431","area":"区東部","type":"renkei","beds":"117","tertiary_er":false,"mark":""}},{"type":"Feature","geometry":{"type":"Point","coordinates":[139.811676,35.689693]},"properties":{"name":"社会福祉法人 あそか会 あそか病院","address":"江東区住吉1-18-1","tel":"03-3632-0290","area":"区東部","type":"renkei","beds":"216","tertiary_er":false,"mark":""}},{"type":"Feature","geometry":{"type":"Point","coordinates":[139.807571,35.671173]},"properties":{"name":"医療法人社団 修世会 木場病院","address":"江東区木場5-8-7","tel":"03-3642-0032","area":"区東部","type":"renkei","beds":"45","tertiary_er":false,"mark":""}},{"type":"Feature","geometry":{"type":"Point","coordinates":[139.806442,35.661758]},"properties":{"name":"医療法人社団 青藍会 鈴木病院","address":"江東区塩浜2-7-3","tel":"03-5617-5617","area":"区東部","type":"renkei","beds":"48","tertiary_er":false,"mark":""}},{"type":"Feature","geometry":{"type":"Point","coordinates":[139.82692,35.676609]},"properties":{"name":"医療法人社団 藤﨑病院","address":"江東区南砂1-25-11","tel":"03-3648-2111","area":"区東部","type":"renkei","beds":"119","tertiary_er":false,"mark":""}},{"type":"Feature","geometry":{"type":"Point","coordinates":[139.814621,35.682766]},"properties":{"name":"医療法人社団 高裕会 深川立川病院","address":"江東区扇橋2-2-3","tel":"03-3645-2101","area":"区東部","type":"renkei","beds":"82","tertiary_er":false,"mark":""}},{"type":"Feature","geometry":{"type":"Point","coordinates":[139.871094,35.69709]},"properties":{"name":"松江病院","address":"江戸川区松江2-6-15","tel":"03-3652-3121","area":"区東部","type":"renkei","beds":"113","tertiary_er":false,"mark":""}},{"type":"Feature","geometry":{"type":"Point","coordinates":[139.87738,35.660625]},"properties":{"name":"医療法人社団 昌医会 葛西昌医会病院","address":"江戸川区東葛西6-30-3","tel":"03-5696-1872","area":"区東部","type":"renkei","beds":"144","tertiary_er":false,"mark":""}},{"type":"Feature","geometry":{"type":"Point","coordinates":[139.884735,35.733768]},"properties":{"name":"医療法人財団 岩井医療財団 岩井整形外科病院","address":"江戸川区南小岩8-17-2","tel":"03-3658-2115","area":"区東部","type":"renkei","beds":"58","tertiary_er":false,"mark":""}},{"type":"Feature","geometry":{"type":"Point","coordinates":[139.916245,35.701557]},"properties":{"name":"医療法人社団 城東桐和会 東京さくら病院","address":"江戸川区東篠崎1-11-1","tel":"03-5664-1701","area":"区東部","type":"renkei","beds":"78","tertiary_er":false,"mark":""}},{"type":"Feature","geometry":{"type":"Point","coordinates":[139.88205,35.720634]},"properties":{"name":"江戸川メディケア病院","address":"江戸川区東松本2-14-12","tel":"03-3657-1181","area":"区東部","type":"renkei","beds":"130","tertiary_er":false,"mark":""}},{"type":"Feature","geometry":{"type":"Point","coordinates":[139.305527,35.794018]},"properties":{"name":"医療法人社団 仁成会 高木病院","address":"青梅市今寺5-18-19","tel":"0428-31-5255","area":"西多摩","type":"renkei","beds":"180","tertiary_er":false,"mark":""}},{"type":"Feature","geometry":{"type":"Point","coordinates":[139.330505,35.742599]},"properties":{"name":"医療法人社団 大聖病院","address":"福生市福生871","tel":"042-551-1311","area":"西多摩","type":"renkei","beds":"116","tertiary_er":false,"mark":""}},{"type":"Feature","geometry":{"type":"Point","coordinates":[139.337372,35.74963]},"properties":{"name":"医療法人社団 悦伝会 目白第二病院","address":"福生市福生1980","tel":"042-553-3511","area":"西多摩","type":"renkei","beds":"160","tertiary_er":false,"mark":""}},{"type":"Feature","geometry":{"type":"Point","coordinates":[139.313293,35.655739]},"properties":{"name":"医療法人社団永生会 南多摩病院","address":"八王子市散田町3-10-1","tel":"042-663-0111","area":"南多摩","type":"renkei","beds":"170","tertiary_er":false,"mark":""}},{"type":"Feature","geometry":{"type":"Point","coordinates":[139.34166,35.65765]},"properties":{"name":"財団法人 仁和会総合病院","address":"八王子市明神町4-8-1","tel":"042-644-3711","area":"南多摩","type":"renkei","beds":"86","tertiary_er":false,"mark":""}},{"type":"Feature","geometry":{"type":"Point","coordinates":[139.340759,35.66861]},"properties":{"name":"医療法人財団 興和会 右田病院","address":"八王子市暁町1-48-18","tel":"042-623-9651","area":"南多摩","type":"renkei","beds":"118","tertiary_er":false,"mark":""}},{"type":"Feature","geometry":{"type":"Point","coordinates":[139.304703,35.6394]},"properties":{"name":"医療法人社団 永生会 永生病院","address":"八王子市椚田町583-15","tel":"042-661-4108","area":"南多摩","type":"renkei","beds":"220","tertiary_er":false,"mark":""}},{"type":"Feature","geometry":{"type":"Point","coordinates":[139.328629,35.673771]},"properties":{"name":"医療法人社団 東光会 八王子山王病院","address":"八王子市中野山王2-15-16","tel":"042-626-1144","area":"南多摩","type":"renkei","beds":"157","tertiary_er":false,"mark":""}},{"type":"Feature","geometry":{"type":"Point","coordinates":[139.337845,35.650517]},"properties":{"name":"医療法人社団 清智会 清智会記念病院","address":"八王子市子安町3-24-15","tel":"042-624-5111","area":"南多摩","type":"renkei","beds":"177","tertiary_er":false,"mark":""}},{"type":"Feature","geometry":{"type":"Point","coordinates":[139.360901,35.662468]},"properties":{"name":"医療法人社団KNI 北原国際病院","address":"八王子市大和田町1-7-23","tel":"042-645-1356","area":"南多摩","type":"renkei","beds":"98","tertiary_er":false,"mark":""}},{"type":"Feature","geometry":{"type":"Point","coordinates":[139.368439,35.630737]},"properties":{"name":"医療法人社団 親和会 野猿峠脳神経外科病院","address":"八王子市下柚木1974-1","tel":"042-674-1515","area":"南多摩","type":"renkei","beds":"45","tertiary_er":false,"mark":""}},{"type":"Feature","geometry":{"type":"Point","coordinates":[139.320572,35.70919]},"properties":{"name":"医療法人社団八九十会 高月整形外科病院","address":"八王子市高月町360","tel":"042-692-0311","area":"南多摩","type":"renkei","beds":"31","tertiary_er":false,"mark":""}},{"type":"Feature","geometry":{"type":"Point","coordinates":[139.441727,35.554012]},"properties":{"name":"医療法人社団 史世会 町田胃腸病院","address":"町田市旭町1-17-21","tel":"042-726-6511","area":"南多摩","type":"renkei","beds":"50","tertiary_er":false,"mark":""}},{"type":"Feature","geometry":{"type":"Point","coordinates":[139.458313,35.605408]},"properties":{"name":"医療法人財団 明理会 鶴川サナトリウム病院","address":"町田市真光寺町197","tel":"042-735-2222","area":"南多摩","type":"renkei","beds":"81","tertiary_er":false,"mark":""}},{"type":"Feature","geometry":{"type":"Point","coordinates":[139.421432,35.606544]},"properties":{"name":"医療法人社団 幸隆会 多摩丘陵病院","address":"町田市下小山田町1491","tel":"042-797-1511","area":"南多摩","type":"renkei","beds":"199","tertiary_er":false,"mark":""}},{"type":"Feature","geometry":{"type":"Point","coordinates":[139.425156,35.565228]},"properties":{"name":"医療法人社団 創生会 町田病院","address":"町田市木曽東4-21-43","tel":"042-789-0502","area":"南多摩","type":"renkei","beds":"120","tertiary_er":false,"mark":""}},{"type":"Feature","geometry":{"type":"Point","coordinates":[139.470535,35.521187]},"properties":{"name":"医療法人社団 慶泉会 町田慶泉病院","address":"町田市南町田2-1-47","tel":"042-795-1668","area":"南多摩","type":"renkei","beds":"61","tertiary_er":false,"mark":""}},{"type":"Feature","geometry":{"type":"Point","coordinates":[139.381348,35.708145]},"properties":{"name":"社会福祉法人 恩賜財団 東京都同胞援護会 昭島病院","address":"昭島市中神町1260","tel":"042-546-3111","area":"北多摩西部","type":"renkei","beds":"199","tertiary_er":false,"mark":""}},{"type":"Feature","geometry":{"type":"Point","coordinates":[139.350143,35.716751]},"properties":{"name":"医療法人 徳洲会 東京西徳洲会病院","address":"昭島市松原町3-1-1","tel":"042-500-6626","area":"北多摩西部","type":"renkei","beds":"519","tertiary_er":false,"mark":""}},{"type":"Feature","geometry":{"type":"Point","coordinates":[139.385162,35.746552]},"properties":{"name":"武蔵村山病院","address":"武蔵村山市榎1-1-5","tel":"042-566-3111","area":"北多摩西部","type":"renkei","beds":"144","tertiary_er":false,"mark":""}},{"type":"Feature","geometry":{"type":"Point","coordinates":[139.413483,35.703758]},"properties":{"name":"立川相互病院","address":"立川市緑町4-1","tel":"042-525-2585","area":"北多摩西部","type":"renkei","beds":"287","tertiary_er":false,"mark":""}},{"type":"Feature","geometry":{"type":"Point","coordinates":[139.565826,35.716446]},"properties":{"name":"武蔵野陽和会病院","address":"武蔵野市緑町2-1-33","tel":"0422-52-3212","area":"北多摩南部","type":"renkei","beds":"103","tertiary_er":false,"mark":""}},{"type":"Feature","geometry":{"type":"Point","coordinates":[139.58783,35.699001]},"properties":{"name":"医療法人社団 啓仁会 吉祥寺南病院","address":"武蔵野市吉祥寺南町3-14-4","tel":"0422-40-1661","area":"北多摩南部","type":"renkei","beds":"127","tertiary_er":false,"mark":""}},{"type":"Feature","geometry":{"type":"Point","coordinates":[139.568466,35.684921]},"properties":{"name":"特定医療法人財団 慈生会 野村病院","address":"三鷹市下連雀8-3-6","tel":"0422-47-4848","area":"北多摩南部","type":"renkei","beds":"89","tertiary_er":false,"mark":""}},{"type":"Feature","geometry":{"type":"Point","coordinates":[139.552322,35.694557]},"properties":{"name":"医療法人社団 永寿会 三鷹中央病院","address":"三鷹市上連雀5-23-10","tel":"0422-44-6161","area":"北多摩南部","type":"renkei","beds":"122","tertiary_er":false,"mark":""}},{"type":"Feature","geometry":{"type":"Point","coordinates":[139.454529,35.657253]},"properties":{"name":"府中恵仁会病院","address":"府中市住吉町5-21-1","tel":"042-365-1211","area":"北多摩南部","type":"renkei","beds":"217","tertiary_er":false,"mark":""}},{"type":"Feature","geometry":{"type":"Point","coordinates":[139.520477,35.666393]},"properties":{"name":"財団法人 日本心臓血圧研究振興会附属 榊原記念病院","address":"府中市朝日町3-16-1","tel":"042-314-3111","area":"北多摩南部","type":"renkei","beds":"307","tertiary_er":false,"mark":""}},{"type":"Feature","geometry":{"type":"Point","coordinates":[139.53273,35.650974]},"properties":{"name":"医療法人社団 桐光会 調布病院","address":"調布市下石原3-45-1","tel":"042-484-2626","area":"北多摩南部","type":"renkei","beds":"128","tertiary_er":false,"mark":""}},{"type":"Feature","geometry":{"type":"Point","coordinates":[139.542053,35.651924]},"properties":{"name":"医療法人社団 東山会 調布東山病院","address":"調布市小島町2-32-17","tel":"042-481-5592","area":"北多摩南部","type":"renkei","beds":"83","tertiary_er":false,"mark":""}},{"type":"Feature","geometry":{"type":"Point","coordinates":[139.50798,35.69978]},"properties":{"name":"医療法人社団 大日会 小金井太陽病院","address":"小金井市本町1-9-17","tel":"042-383-5511","area":"北多摩南部","type":"renkei","beds":"55","tertiary_er":false,"mark":""}},{"type":"Feature","geometry":{"type":"Point","coordinates":[139.461182,35.77129]},"properties":{"name":"公益財団法人 結核予防会 新山手病院","address":"東村山市諏訪町3-6-1","tel":"042-391-1425","area":"北多摩北部","type":"renkei","beds":"172","tertiary_er":false,"mark":""}},{"type":"Feature","geometry":{"type":"Point","coordinates":[139.470016,35.754253]},"properties":{"name":"社会医療法人社団 愛有会 久米川病院","address":"東村山市本町4-7-14","tel":"042-393-5511","area":"北多摩北部","type":"renkei","beds":"40","tertiary_er":false,"mark":""}},{"type":"Feature","geometry":{"type":"Point","coordinates":[139.511993,35.772427]},"properties":{"name":"公益財団法人 結核予防会 複十字病院","address":"清瀬市松山3-1-24","tel":"042-491-9234","area":"北多摩北部","type":"renkei","beds":"274","tertiary_er":false,"mark":""}},{"type":"Feature","geometry":{"type":"Point","coordinates":[139.515045,35.750225]},"properties":{"name":"医療法人社団 山本・前田記念会 前田病院","address":"東久留米市中央町5-13-34","tel":"042-473-2133","area":"北多摩北部","type":"renkei","beds":"39","tertiary_er":false,"mark":""}},{"type":"Feature","geometry":{"type":"Point","coordinates":[139.531219,35.726776]},"properties":{"name":"医療法人社団 東光会 西東京中央総合病院","address":"西東京市芝久保町2-4-19","tel":"042-464-1511","area":"北多摩北部","type":"renkei","beds":"270","tertiary_er":false,"mark":""}},{"type":"Feature","geometry":{"type":"Point","coordinates":[139.557587,35.748749]},"properties":{"name":"保谷厚生病院","address":"西東京市栄町1-17-18","tel":"042-424-6640","area":"北多摩北部","type":"renkei","beds":"178","tertiary_er":false,"mark":""}},{"type":"Feature","geometry":{"type":"Point","coordinates":[139.532928,35.717411]},"properties":{"name":"医療法人徳洲会 武蔵野徳洲会病院","address":"西東京市向台町3-5-48","tel":"042-465-0700","area":"北多摩北部","type":"renkei","beds":"206","tertiary_er":false,"mark":""}}]}